{
    "links": {
        "self": "http://www.neowsapp.com/rest/v1/neo/3878606?api_key=iIulBulltgU6a56xZRHN4H3l9WmuAYTsLGpBGhQ2"
    },
    "id": "3878606",
    "neo_reference_id": "3878606",
    "name": "(2019 TM4)",
    "designation": "2019 TM4",
    "nasa_jpl_url": "http://ssd.jpl.nasa.gov/sbdb.cgi?sstr=3878606",
    "absolute_magnitude_h": 24.0,
    "estimated_diameter": {
        "kilometers": {
            "estimated_diameter_min": 0.0421264611,
            "estimated_diameter_max": 0.0941976306
        },
        "meters": {
            "estimated_diameter_min": 42.1264610556,
            "estimated_diameter_max": 94.1976305719
        },
        "miles": {
            "estimated_diameter_min": 0.0261761612,
            "estimated_diameter_max": 0.0585316759
        },
        "feet": {
            "estimated_diameter_min": 138.2101784897,
            "estimated_diameter_max": 309.0473542854
        }
    },
    "is_potentially_hazardous_asteroid": false,
    "close_approach_data": [
        {
            "close_approach_date": "2019-09-21",
            "close_approach_date_full": "2019-Sep-21 19:34",
            "epoch_date_close_approach": 1569094440000,
            "relative_velocity": {
                "kilometers_per_second": "13.0898975328",
                "kilometers_per_hour": "47123.6311181974",
                "miles_per_hour": "29280.7917911932"
            },
            "miss_distance": {
                "astronomical": "0.075938432",
                "lunar": "29.540050048",
                "kilometers": "11360227.67833984",
                "miles": "7058918.152936192"
            },
            "orbiting_body": "Earth"
        }
    ],
    "orbital_data": {
        "orbit_id": "1",
        "orbit_determination_date": "2019-10-09 09:50:06",
        "first_observation_date": "2019-10-07",
        "last_observation_date": "2019-10-09",
        "data_arc_in_days": 2,
        "observations_used": 16,
        "orbit_uncertainty": "9",
        "minimum_orbit_intersection": ".0446934",
        "jupiter_tisserand_invariant": "3.129",
        "epoch_osculation": "2458764.5",
        "eccentricity": ".6010400813512139",
        "semi_major_axis": "2.508851100514073",
        "inclination": "18.14515853116253",
        "ascending_node_longitude": "8.239663291405019",
        "orbital_period": "1451.479000994313",
        "perihelion_distance": "1.000931030963012",
        "perihelion_argument": "329.7927681212497",
        "aphelion_distance": "4.016771170065134",
        "perihelion_time": "2458729.300026648176",
        "mean_anomaly": "8.730398716051619",
        "mean_motion": ".248022878562754",
        "equinox": "J2000",
        "orbit_class": {
            "orbit_class_type": "APO",
            "orbit_class_description": "Near-Earth asteroid orbits which cross the Earth’s orbit similar to that of 1862 Apollo",
            "orbit_class_range": "a (semi-major axis) > 1.0 AU; q (perihelion) < 1.017 AU"
        }
    },
    "is_sentry_object": false
}